satname,norad_id,inclination_deg,eccentricity,mean_motion_rev_per_day,perigee_km,apogee_km,l1,l2
STARLINK-1225,45187,53.1569,0.0001388,15.30896046,472.1866320843101,474.08854591021645,1 45187U 20012K   26107.79688326  .00032357  00000+0  10765-2 0  9995,2 45187  53.1569 217.9914 0001388  27.8772 332.2303 15.30896046340928
STARLINK-1230,45189,53.1569,0.000219,15.30870553,471.713204091996,474.7140956766443,1 45189U 20012M   26107.67582900  .00009415  00000+0  32290-3 0  9992,2 45189  53.1569 218.6107 0002190  33.4344 326.6795 15.30870553338139
STARLINK-1234,45190,53.0407,0.0009012,15.67919976,358.7772031387167,370.93077009299304,1 45190U 20012N   26106.37787045  .00032556  00000+0  29266-3 0  9998,2 45190  53.0407 140.1377 0009012  45.7570 314.4184 15.67919976341781
STARLINK-1269,45197,53.1575,9.8e-05,15.30944998,472.32013118468603,473.66295237887516,1 45197U 20012V   26107.73752880  .00019593  00000+0  65666-3 0  9995,2 45197  53.1575 218.1808 0000980  20.8027 339.3014 15.30944998340897
STARLINK-1154,45198,53.0451,0.0003451,15.52525533,407.01278797803207,411.6975150610115,1 45198U 20012W   26107.90456218  .00045715  00000+0  73601-3 0  9994,2 45198  53.0451 181.9920 0003451 299.0139  61.0524 15.52525533341375
STARLINK-1199,45201,53.1591,0.0001608,15.30870244,472.11287449658266,474.3162691620819,1 45201U 20012Z   26107.64188486  .00020121  00000+0  67554-3 0  9993,2 45201  53.1591 202.8745 0001608  41.8238 318.2886 15.30870244341128
STARLINK-1209,45206,53.0419,0.001219,15.58067927,384.99486119180256,401.5035007009501,1 45206U 20012AE  26107.82303396  .00054628  00000+0  71354-3 0  9999,2 45206  53.0419 144.2998 0012190  34.8764 325.3043 15.58067927341001
STARLINK-1231,45212,53.0368,0.0003379,15.24474517,490.0422691306103,494.68535357892324,1 45212U 20012AL  26107.66413434  .00020527  00000+0  83602-3 0  9993,2 45212  53.0368 196.2960 0003379 284.2653  75.7968 15.24474517341163
STARLINK-1271,45217,53.159,0.0001595,15.30750574,472.47879991771606,474.6644949762522,1 45217U 20012AR  26107.64060522  .00014853  00000+0  50401-3 0  9998,2 45217  53.1590 203.0145 0001595  34.8475 325.2630 15.30750574341129
STARLINK-1191,45222,53.1564,0.0004842,15.34109549,460.2539050781461,466.8794109005439,1 45222U 20012AW  26107.48428482  .00028269  00000+0  85223-3 0  9995,2 45222  53.1564 178.1110 0004842   7.9160 352.1918 15.34109549341469
STARLINK-1212,45223,53.0434,0.0006023,15.598712,383.9542521072699,392.10477629027355,1 45223U 20012AX  26107.90190853  .00065669  00000+0  80086-3 0  9998,2 45223  53.0434 160.2078 0006023 339.9597  20.1177 15.59871200341742
STARLINK-1215,45225,53.1587,0.0001709,15.30929287,471.867548478328,474.20928023495617,1 45225U 20012AZ  26107.90712228  .00027195  00000+0  90630-3 0  9994,2 45225  53.1587 176.1114 0001709  41.2617 318.8513 15.30929287341483
STARLINK-1221,45227,53.0649,0.0003764,15.43283388,433.86166975702236,438.9916732889451,1 45227U 20012BB  26107.91279672  .00009974  00000+0  22963-3 0  9997,2 45227  53.0649  83.5389 0003764 108.1716 251.9699 15.43283388342767
STARLINK-1222,45228,53.0536,2.18e-05,15.51881317,411.08542629995827,411.38144285090584,1 45228U 20012BC  26107.54733800  .00019963  00000+0  33430-3 0  9995,2 45228  53.0536 156.1641 0000218 328.7038  31.3957 15.51881317341658
STARLINK-1226,45229,53.1574,0.0002494,15.38905382,447.6422021104163,451.0477501201012,1 45229U 20012BD  26107.88612468  .00030036  00000+0  77580-3 0  9997,2 45229  53.1574 175.2639 0002494  29.7995 330.3151 15.38905382341437
STARLINK-1227,45230,53.1567,0.0003441,15.38953315,446.8539195302883,451.5524950609479,1 45230U 20012BE  26107.89968152  .00031836  00000+0  82014-3 0  9991,2 45230  53.1567 175.3586 0003441  22.6670 337.4486 15.38953315341559
STARLINK-1246,45235,53.1579,0.0001308,15.3087777,472.2959631882468,474.0882708852632,1 45235U 20012BK  26107.68205739  .00027568  00000+0  91999-3 0  9997,2 45235  53.1579 218.1018 0001308  37.5329 322.5763 15.30877770340946
STARLINK-1270,45237,53.0445,0.0004874,15.5373288,402.53198419467026,409.1450035060752,1 45237U 20012BM  26107.84021651  .00044732  00000+0  68958-3 0  9997,2 45237  53.0445 159.5678 0004874 359.9343   0.1665 15.53732880341743
STARLINK-1279,45360,53.0401,0.0005035,15.65728606,367.7458488006305,374.5423748802532,1 45360U 20019A   26107.74386222  .00078414  00000+0  75900-3 0  9997,2 45360  53.0401 268.0379 0005035 287.3426  72.7037 15.65728606336771
STARLINK-1301,45361,53.0409,0.0003166,15.69955334,356.8918044232005,361.1577752685298,1 45361U 20019B   26107.87188532  .00046076  00000+0  37909-3 0  9992,2 45361  53.0409 271.0315 0003166 332.0082  28.0764 15.69955334336756
STARLINK-1262,45366,53.1547,8.44e-05,15.30007846,475.2103953298283,476.3673380161217,1 45366U 20019G   26107.94498767  .00028952  00000+0  99168-3 0  9997,2 45366  53.1547 342.9683 0000844 132.9466 227.1606 15.30007846335765
STARLINK-1273,45367,53.0488,0.0003579,15.50158549,413.83103014108656,418.6944614791382,1 45367U 20019H   26107.87245791  .00046028  00000+0  80611-3 0  9994,2 45367  53.0488 327.5727 0003579 170.6387 189.4688 15.50158549335967
STARLINK-1277,45369,53.0491,0.0005226,15.55821622,396.2231949892994,403.30745850121457,1 45369U 20019K   26107.90101787  .00053267  00000+0  75865-3 0  9994,2 45369  53.0491 323.7737 0005226 173.0731 187.0352 15.55821622336027
STARLINK-1281,45370,53.1606,6.38e-05,15.30927436,472.60683138354034,473.48104207106553,1 45370U 20019L   26107.92271555  .00034859  00000+0  11573-2 0  9990,2 45370  53.1606 343.0254 0000638 155.6770 204.4261 15.30927436335764
STARLINK-1300,45374,53.1589,4.69e-05,15.31055391,472.340912775815,472.98351774220646,1 45374U 20019Q   26107.94460242  .00026827  00000+0  89077-3 0  9990,2 45374  53.1589 342.9268 0000469  42.6183 317.4855 15.31055391335763
STARLINK-1302,45375,53.0499,0.0002043,15.60614238,384.4997880277042,387.26356605914407,1 45375U 20019R   26107.85257374  .00038020  00000+0  45513-3 0  9996,2 45375  53.0499 321.7623 0002043 149.4254 210.6878 15.60614238336042
STARLINK-1304,45376,53.0473,0.0002917,15.54999608,400.17595804864686,404.1315796832041,1 45376U 20019S   26107.74153063  .00052293  00000+0  76808-3 0  9994,2 45376  53.0473 321.6246 0002917 176.2085 183.8948 15.54999608336033
STARLINK-1305,45377,53.0406,0.0006126,15.60953856,380.75750263689497,389.0435762302086,1 45377U 20019T   26107.92954488  .00076519  00000+0  89311-3 0  9995,2 45377  53.0406 301.9464 0006126 237.9823 122.0594 15.60953856336331
STARLINK-1319,45379,53.0427,0.0001685,15.70070776,357.5593891859053,359.8297014166719,1 45379U 20019V   26107.94143858  .00045148  00000+0  36988-3 0  9996,2 45379  53.0427 296.2853 0001685 207.4145 152.6782 15.70070776336417
STARLINK-1266,45383,53.0475,0.000388,15.51730228,409.03969269799654,414.30858614218687,1 45383U 20019Z   26107.83234735  .00065281  00000+0  10754-2 0  9996,2 45383  53.0475 305.5202 0003880 181.7229 178.3767 15.51730228336268
STARLINK-1267,45384,53.0484,0.0002015,15.56954465,395.11210016758287,397.8422696841071,1 45384U 20019AA  26107.93031608  .00069626  00000+0  94731-3 0  9997,2 45384  53.0484 297.7420 0002015 296.7732  63.3072 15.56954465336389
STARLINK-1272,45386,53.0425,0.0005436,15.63930101,372.64580591353024,379.9892488757141,1 45386U 20019AC  26107.74801034  .00074865  00000+0  77875-3 0  9997,2 45386  53.0425 279.4999 0005436 271.5965  88.4426 15.63930101336620
STARLINK-1274,45387,53.0254,0.0005551,15.53568596,402.5506883092394,410.08278884980973,1 45387U 20019AD  26107.85102724  .00055702  00000+0  86070-3 0  9996,2 45387  53.0254 274.8055 0005551 316.9568  43.1006 15.53568596336697
STARLINK-1280,45388,53.0405,0.0001815,15.70669991,355.75859901627973,358.2034468586062,1 45388U 20019AE  26107.91074325  .00047610  00000+0  38008-3 0  9996,2 45388  53.0405 289.0791 0001815 258.8103 101.2710 15.70669991336495
STARLINK-1283,45389,53.042,5.9e-05,15.65609297,371.0887706585372,371.8852262903574,1 45389U 20019AF  26107.87167074  .00036891  00000+0  36364-3 0  9998,2 45389  53.0420 278.4620 0000590 346.0691  14.0307 15.65609297336655
STARLINK-1284,45390,53.0452,0.000423,15.58804588,388.2522679513422,393.97905570324747,1 45390U 20019AG  26107.93911979  .00070385  00000+0  89314-3 0  9997,2 45390  53.0452 301.1156 0004230 196.0897 163.9981 15.58804588336335
STARLINK-1297,45395,53.0445,0.0004855,15.6208218,378.3615533524644,384.9253001468378,1 45395U 20019AM  26107.94396473  .00079150  00000+0  88425-3 0  9990,2 45395  53.0445 300.0064 0004855 197.1869 162.8980 15.62082180335531
STARLINK-1307,45397,53.0543,0.0001556,15.53318215,405.9900067189583,408.10155560045587,1 45397U 20019AP  26107.90836531  .00023333  00000+0  36976-3 0  9998,2 45397  53.0543 302.1000 0001556 112.7093 247.4081 15.53318215336143
STARLINK-1255,45399,53.0389,0.0002961,15.59353355,387.52350812925215,391.53131899496384,1 45399U 20019AR  26107.87828981  .00075861  00000+0  94188-3 0  9998,2 45399  53.0389 273.0496 0002961 284.1101  75.9582 15.59353355336536
STARLINK-1260,45404,53.1582,0.0001631,15.33222645,465.0885143184096,467.32113862220467,1 45404U 20019AW  26107.92131594  .00036812  00000+0  11367-2 0  9998,2 45404  53.1582 306.6804 0001631 237.6941 122.3903 15.33222645335984
STARLINK-1263,45405,53.1606,4.82e-05,15.30837239,472.98280878800324,473.6432885726963,1 45405U 20019AX  26107.74202799  .00028049  00000+0  93696-3 0  9994,2 45405  53.1606 307.8527 0000482  83.9416 276.1640 15.30837239335950
STARLINK-1265,45406,53.1585,0.0001533,15.33389426,464.6593670768416,466.75769011591,1 45406U 20019AY  26107.92371320  .00037336  00000+0  11466-2 0  9995,2 45406  53.1585 306.7671 0001533 212.3955 147.6953 15.33389426335984
STARLINK-1278,45408,53.0434,0.000387,15.63283439,375.56538594405083,380.79477536447666,1 45408U 20019BA  26107.80820666  .00065536  00000+0  70097-3 0  9995,2 45408  53.0434 299.9519 0003870 234.6113 125.4539 15.63283439336065
